[
  {
    "name": "STARLINK-31817",
    "noradId": "59731",
    "line1": "1 59731U 24090B   26169.45361638 -.00000250  00000+0  42740-6 0  9990",
    "line2": "2 59731  43.0031 334.1805 0001570 269.1341  90.9330 15.27573467118855"
  },
  {
    "name": "STARLINK-31833",
    "noradId": "59733",
    "line1": "1 59733U 24090D   26169.48574112 -.00001375  00000+0 -40480-4 0  9995",
    "line2": "2 59733  43.0015 334.4169 0000999 265.7883  94.2855 15.27570232118858"
  },
  {
    "name": "STARLINK-31849",
    "noradId": "59734",
    "line1": "1 59734U 24090E   26169.73668378  .00001006  00000+0  46084-4 0  9997",
    "line2": "2 59734  42.9960 325.9397 0000830 271.9444  88.1313 15.27575826118978"
  },
  {
    "name": "STARLINK-31661",
    "noradId": "59735",
    "line1": "1 59735U 24090F   26168.87509052  .00000246  00000+0  18467-4 0  9994",
    "line2": "2 59735  43.0035 330.6586 0002000 267.9737  92.0886 15.27579525118843"
  },
  {
    "name": "STARLINK-31707",
    "noradId": "59736",
    "line1": "1 59736U 24090G   26169.72929705  .00000173  00000+0  15826-4 0  9996",
    "line2": "2 59736  42.9994 332.8086 0001630 275.0770  84.9895 15.27576814118893"
  },
  {
    "name": "STARLINK-31821",
    "noradId": "59737",
    "line1": "1 59737U 24090H   26169.80623929  .00001432  00000+0  61558-4 0  9997",
    "line2": "2 59737  43.0017 332.5292 0001204 266.8467  93.2247 15.27577976118902"
  },
  {
    "name": "STARLINK-31819",
    "noradId": "59738",
    "line1": "1 59738U 24090J   26169.73572501  .00000010  00000+0  99113-5 0  9999",
    "line2": "2 59738  43.0045 332.8549 0001991 281.3195  78.7433 15.27573889118897"
  },
  {
    "name": "STARLINK-31726",
    "noradId": "59739",
    "line1": "1 59739U 24090K   26169.51514493 -.00000124  00000+0  50175-5 0  9994",
    "line2": "2 59739  43.0036 333.7823 0001715 268.7508  91.3147 15.27574743118864"
  },
  {
    "name": "STARLINK-31759",
    "noradId": "59740",
    "line1": "1 59740U 24090L   26169.75883944 -.00001794  00000+0 -55687-4 0  9999",
    "line2": "2 59740  43.0038 333.0293 0000935 267.7314  92.3431 15.27582736118890"
  },
  {
    "name": "STARLINK-31818",
    "noradId": "59741",
    "line1": "1 59741U 24090M   26169.75113376  .00000677  00000+0  34113-4 0  9993",
    "line2": "2 59741  43.0032 332.9702 0001135 261.0901  98.9823 15.27581505118890"
  },
  {
    "name": "STARLINK-31816",
    "noradId": "59742",
    "line1": "1 59742U 24090N   26169.76526512  .00000644  00000+0  32924-4 0  9997",
    "line2": "2 59742  43.0039 333.0558 0001605 274.6677  85.3991 15.27579191118873"
  },
  {
    "name": "STARLINK-31809",
    "noradId": "59743",
    "line1": "1 59743U 24090P   26169.72897694  .00000028  00000+0  10531-4 0  9992",
    "line2": "2 59743  43.0023 325.8837 0000867 263.2143  96.8610 15.27575438118973"
  },
  {
    "name": "STARLINK-31779",
    "noradId": "59744",
    "line1": "1 59744U 24090Q   26169.78441362 -.00000786  00000+0 -19035-4 0  9997",
    "line2": "2 59744  43.0036 332.3616 0001323 265.0794  94.9906 15.27567424118902"
  },
  {
    "name": "STARLINK-31805",
    "noradId": "59745",
    "line1": "1 59745U 24090R   26169.90360241  .00000895  00000+0  42037-4 0  9995",
    "line2": "2 59745  43.0038 331.5366 0001326 267.4370  92.6330 15.27582859118924"
  },
  {
    "name": "STARLINK-31681",
    "noradId": "59746",
    "line1": "1 59746U 24090S   26169.73282846  .00000696  00000+0  34814-4 0  9994",
    "line2": "2 59746  43.0060 325.9160 0001218 268.4235  91.6477 15.27581571118976"
  },
  {
    "name": "STARLINK-31636",
    "noradId": "59747",
    "line1": "1 59747U 24090T   26169.72157812  .00001086  00000+0  48970-4 0  9990",
    "line2": "2 59747  42.9987 332.7444 0001261 241.0944 118.9782 15.27579939118894"
  },
  {
    "name": "STARLINK-31640",
    "noradId": "59748",
    "line1": "1 59748U 24090U   26169.73828537  .00000129  00000+0  14208-4 0  9995",
    "line2": "2 59748  43.0006 332.8738 0001227 273.3706  86.7005 15.27579722118892"
  },
  {
    "name": "STARLINK-31677",
    "noradId": "59749",
    "line1": "1 59749U 24090V   26169.75498996  .00000743  00000+0  36511-4 0  9993",
    "line2": "2 59749  43.0034 332.9985 0001199 271.4505  88.6209 15.27578057118889"
  },
  {
    "name": "STARLINK-31783",
    "noradId": "59750",
    "line1": "1 59750U 24090W   26169.76269942  .00000311  00000+0  20831-4 0  9992",
    "line2": "2 59750  43.0066 333.0574 0001812 276.1904  83.8741 15.27577254118885"
  },
  {
    "name": "STARLINK-31808",
    "noradId": "59751",
    "line1": "1 59751U 24090X   26169.50743815 -.00000070  00000+0  69914-5 0  9990",
    "line2": "2 59751  43.0004 333.7202 0000911 268.3682  91.7066 15.27573826118854"
  },
  {
    "name": "STARLINK-31822",
    "noradId": "59752",
    "line1": "1 59752U 24090Y   26169.79081825  .00001397  00000+0  60269-4 0  9993",
    "line2": "2 59752  43.0016 332.4069 0001395 268.3987  91.6704 15.27581743118899"
  },
  {
    "name": "STARLINK-11118 [DTC]",
    "noradId": "59754",
    "line1": "1 59754U 24091B   26169.89085771  .00001595  00000+0  18013-4 0  9991",
    "line2": "2 59754  53.1587  67.7095 0000722  86.6416 273.4685 15.69711263121401"
  },
  {
    "name": "STARLINK-11132 [DTC]",
    "noradId": "59755",
    "line1": "1 59755U 24091C   26169.94472015  .00000502  00000+0  89988-5 0  9996",
    "line2": "2 59755  53.1591  67.3303 0000975  89.8666 270.2463 15.69705448121415"
  },
  {
    "name": "STARLINK-11131 [DTC]",
    "noradId": "59756",
    "line1": "1 59756U 24091D   26169.93981482 -.00000200  00000+0  32098-5 0  9995",
    "line2": "2 59756  53.1594  67.2999 0001050  95.2052 264.9086 15.69709245121414"
  },
  {
    "name": "STARLINK-11114 [DTC]",
    "noradId": "59757",
    "line1": "1 59757U 24091E   26169.93491295  .00000498  00000+0  89711-5 0  9996",
    "line2": "2 59757  53.1593  67.2868 0001043  87.6517 272.4620 15.69706175121419"
  },
  {
    "name": "STARLINK-11105 [DTC]",
    "noradId": "59758",
    "line1": "1 59758U 24091F   26169.93000654  .00001594  00000+0  18020-4 0  9994",
    "line2": "2 59758  53.1597  67.2524 0001236  94.0062 266.1097 15.69703331121413"
  },
  {
    "name": "STARLINK-11097 [DTC]",
    "noradId": "59759",
    "line1": "1 59759U 24091G   26169.98876832  .00000134  00000+0  59640-5 0  9992",
    "line2": "2 59759  53.1605  66.8858 0001171  79.3292 280.7857 15.69700315121424"
  },
  {
    "name": "STARLINK-11098 [DTC]",
    "noradId": "59760",
    "line1": "1 59760U 24091H   26169.98387584 -.00000426  00000+0  13362-5 0  9991",
    "line2": "2 59760  53.1583  66.8522 0000680  77.3556 282.7538 15.69690766121420"
  },
  {
    "name": "STARLINK-11117 [DTC]",
    "noradId": "59761",
    "line1": "1 59761U 24091J   26169.97895828  .00003637  00000+0  34885-4 0  9994",
    "line2": "2 59761  53.1600  66.8209 0001258  63.2553 296.8594 15.69696023121426"
  },
  {
    "name": "STARLINK-11110 [DTC]",
    "noradId": "59762",
    "line1": "1 59762U 24091K   26169.91038053  .00000061  00000+0  53604-5 0  9997",
    "line2": "2 59762  53.1589  67.0977 0001065  72.5181 287.5953 15.69706533121417"
  },
  {
    "name": "STARLINK-11104 [DTC]",
    "noradId": "59763",
    "line1": "1 59763U 24091L   26169.96913865 -.00004085  00000+0 -28860-4 0  9993",
    "line2": "2 59763  53.1592  66.7540 0000810  76.9944 283.1164 15.69725328121426"
  },
  {
    "name": "STARLINK-11111 [DTC]",
    "noradId": "59764",
    "line1": "1 59764U 24091M   26168.93718630  .00102066  00000+0  52736-3 0  9997",
    "line2": "2 59764  53.1472  69.4556 0004431 113.4077 246.7411 15.80326439121296"
  },
  {
    "name": "STARLINK-11106 [DTC]",
    "noradId": "59765",
    "line1": "1 59765U 24091N   26169.90056996 -.00001638  00000+0 -86686-5 0  9994",
    "line2": "2 59765  53.1604  67.0355 0000999 109.8378 250.2748 15.69709784121415"
  },
  {
    "name": "STARLINK-31739",
    "noradId": "59766",
    "line1": "1 59766U 24091P   26169.71773048  .00001946  00000+0  77814-4 0  9990",
    "line2": "2 59766  53.1602 274.6919 0001390  90.7096 269.4064 15.30195606118517"
  },
  {
    "name": "STARLINK-31828",
    "noradId": "59767",
    "line1": "1 59767U 24091Q   26169.61474137 -.00000353  00000+0  41516-6 0  9991",
    "line2": "2 59767  53.1593 277.5931 0001623  61.3632 298.7533 15.31701772118460"
  },
  {
    "name": "STARLINK-31826",
    "noradId": "59768",
    "line1": "1 59768U 24091R   26169.54880898  .00091105  00000+0  18295-2 0  9997",
    "line2": "2 59768  53.1534 273.6119 0007403 291.1898  68.8318 15.45904452118518"
  },
  {
    "name": "STARLINK-31830",
    "noradId": "59769",
    "line1": "1 59769U 24091S   26169.60886824  .00007197  00000+0  25516-3 0  9993",
    "line2": "2 59769  53.1607 278.2631 0003542  41.3041 318.8227 15.30164145118456"
  },
  {
    "name": "STARLINK-31829",
    "noradId": "59770",
    "line1": "1 59770U 24091T   26169.59933816  .00001900  00000+0  76265-4 0  9991",
    "line2": "2 59770  53.1607 278.2069 0002294 135.2974 224.8212 15.30213372118451"
  },
  {
    "name": "STARLINK-31786",
    "noradId": "59771",
    "line1": "1 59771U 24091U   26169.74369001  .00002557  00000+0  98400-4 0  9992",
    "line2": "2 59771  53.1583 277.6957 0003301  33.1358 326.9849 15.30223120118470"
  },
  {
    "name": "STARLINK-31835",
    "noradId": "59772",
    "line1": "1 59772U 24091V   26169.61007277  .00003451  00000+0  12298-3 0  9997",
    "line2": "2 59772  53.1587 277.5669 0002009  47.0629 313.0541 15.31690434118465"
  },
  {
    "name": "STARLINK-31363",
    "noradId": "59782",
    "line1": "1 59782U 24093A   26169.78818893  .00000860  00000+0  40777-4 0  9997",
    "line2": "2 59782  43.0000 354.7392 0000816 251.5868 108.4895 15.27580663118191"
  },
  {
    "name": "STARLINK-31868",
    "noradId": "59783",
    "line1": "1 59783U 24093B   26169.78946648  .00000615  00000+0  31866-4 0  9995",
    "line2": "2 59783  43.0014 354.7145 0001349 261.6593  98.4106 15.27580851118194"
  }
]